{
    "links": {
        "self": "http://www.neowsapp.com/rest/v1/neo/3458972?api_key=iIulBulltgU6a56xZRHN4H3l9WmuAYTsLGpBGhQ2"
    },
    "id": "3458972",
    "neo_reference_id": "3458972",
    "name": "(2009 HG60)",
    "designation": "2009 HG60",
    "nasa_jpl_url": "http://ssd.jpl.nasa.gov/sbdb.cgi?sstr=3458972",
    "absolute_magnitude_h": 22.7,
    "estimated_diameter": {
        "kilometers": {
            "estimated_diameter_min": 0.0766575574,
            "estimated_diameter_max": 0.1714115092
        },
        "meters": {
            "estimated_diameter_min": 76.6575573531,
            "estimated_diameter_max": 171.4115092306
        },
        "miles": {
            "estimated_diameter_min": 0.0476327831,
            "estimated_diameter_max": 0.1065101409
        },
        "feet": {
            "estimated_diameter_min": 251.5011804664,
            "estimated_diameter_max": 562.3737359442
        }
    },
    "is_potentially_hazardous_asteroid": false,
    "close_approach_data": [
        {
            "close_approach_date": "2009-04-24",
            "close_approach_date_full": "2009-Apr-24 15:38",
            "epoch_date_close_approach": 1240587480000,
            "relative_velocity": {
                "kilometers_per_second": "18.131962557",
                "kilometers_per_hour": "65275.0652050337",
                "miles_per_hour": "40559.38704365"
            },
            "miss_distance": {
                "astronomical": "0.0247694937",
                "lunar": "9.6353330493",
                "kilometers": "3705463.498498419",
                "miles": "2302468.2510954222"
            },
            "orbiting_body": "Earth"
        },
        {
            "close_approach_date": "2011-11-07",
            "close_approach_date_full": "2011-Nov-07 13:16",
            "epoch_date_close_approach": 1320671760000,
            "relative_velocity": {
                "kilometers_per_second": "26.0460427785",
                "kilometers_per_hour": "93765.7540026965",
                "miles_per_hour": "58262.3930912866"
            },
            "miss_distance": {
                "astronomical": "0.3010696665",
                "lunar": "117.1161002685",
                "kilometers": "45039380.830010355",
                "miles": "27986173.511658699"
            },
            "orbiting_body": "Earth"
        }
    ],
    "orbital_data": {
        "orbit_id": "15",
        "orbit_determination_date": "2017-04-06 09:00:41",
        "first_observation_date": "2009-04-27",
        "last_observation_date": "2009-05-20",
        "data_arc_in_days": 23,
        "observations_used": 69,
        "orbit_uncertainty": "7",
        "minimum_orbit_intersection": ".000919844",
        "jupiter_tisserand_invariant": "3.564",
        "epoch_osculation": "2459000.5",
        "eccentricity": ".6429661351985072",
        "semi_major_axis": "1.981345404681832",
        "inclination": "6.949814191553971",
        "ascending_node_longitude": "212.7857905119023",
        "orbital_period": "1018.682193630765",
        "perihelion_distance": ".7074074073402322",
        "perihelion_argument": "283.5994793947623",
        "aphelion_distance": "3.255283402023432",
        "perihelion_time": "2458973.828396373366",
        "mean_anomaly": "9.425684836372655",
        "mean_motion": ".3533977547176864",
        "equinox": "J2000",
        "orbit_class": {
            "orbit_class_type": "APO",
            "orbit_class_description": "Near-Earth asteroid orbits which cross the Earth’s orbit similar to that of 1862 Apollo",
            "orbit_class_range": "a (semi-major axis) > 1.0 AU; q (perihelion) < 1.017 AU"
        }
    },
    "is_sentry_object": false
}